start=new Date('2023-01-08T00:00:00.000Z').valueOf();
sats=[{"ARG_OF_PERICENTER":"72.1981","CLASSIFICATION_TYPE":"U","TLE_LINE2":"2 53207  97.6541  70.9435 0000983  72.1981 287.9350 15.01270021 25715","FILE":"3735488","ECCENTRICITY":"0.00009830","MEAN_MOTION_DOT":"-0.00000052","EPOCH":"2023-01-07T14:26:04.480800","APOAPSIS":"563.663","REF_FRAME":"TEME","REV_AT_EPOCH":"2571","TLE_LINE1":"1 53207U 22084U   23007.60144075 -.00000052  00000-0  53769-6 0  9996","PERIAPSIS":"562.299","OBJECT_ID":"2022-084U","MEAN_ELEMENT_THEORY":"SGP4","EPHEMERIS_TYPE":"0","INCLINATION":"97.6541","BSTAR":"0.00000053769000","OBJECT_TYPE":"PAYLOAD","LAUNCH_DATE":"2022-07-22","NORAD_CAT_ID":"53207","DECAY_DATE":null,"CENTER_NAME":"EARTH","GP_ID":"222425878","RA_OF_ASC_NODE":"70.9435","SEMIMAJOR_AXIS":"6941.116","MEAN_ANOMALY":"287.9350","SITE":"AFWTR","RCS_SIZE":"LARGE","PERIOD":"95.919","MEAN_MOTION_DDOT":"0.0000000000000","TIME_SYSTEM":"UTC","COUNTRY_CODE":"US","ELEMENT_SET_NO":"999","MEAN_MOTION":"15.01270021","OBJECT_NAME":"STARLINK-4413"},{"RCS_SIZE":"LARGE","SITE":"AFWTR","MEAN_ANOMALY":"246.2436","SEMIMAJOR_AXIS":"6941.149","RA_OF_ASC_NODE":"70.9528","CENTER_NAME":"EARTH","GP_ID":"222426569","DECAY_DATE":null,"LAUNCH_DATE":"2022-07-22","NORAD_CAT_ID":"53208","OBJECT_TYPE":"PAYLOAD","OBJECT_NAME":"STARLINK-4425","MEAN_MOTION":"15.01259445","ELEMENT_SET_NO":"999","COUNTRY_CODE":"US","MEAN_MOTION_DDOT":"0.0000000000000","TIME_SYSTEM":"UTC","PERIOD":"95.919","EPHEMERIS_TYPE":"0","OBJECT_ID":"2022-084V","MEAN_ELEMENT_THEORY":"SGP4","PERIAPSIS":"562.015","TLE_LINE1":"1 53208U 22084V   23007.60885120 -.00000108  00000-0 -38331-5 0  9990","APOAPSIS":"564.012","REV_AT_EPOCH":"2571","REF_FRAME":"TEME","EPOCH":"2023-01-07T14:36:44.743680","ECCENTRICITY":"0.00014390","MEAN_MOTION_DOT":"-0.00000108","FILE":"3735488","TLE_LINE2":"2 53208  97.6546  70.9528 0001439 113.8939 246.2436 15.01259445 25717","CLASSIFICATION_TYPE":"U","ARG_OF_PERICENTER":"113.8939","BSTAR":"-0.00000383310000","INCLINATION":"97.6546"},{"OBJECT_TYPE":"PAYLOAD","DECAY_DATE":null,"LAUNCH_DATE":"2022-07-22","NORAD_CAT_ID":"53209","SEMIMAJOR_AXIS":"6941.125","RA_OF_ASC_NODE":"71.2060","CENTER_NAME":"EARTH","GP_ID":"222401192","RCS_SIZE":"LARGE","MEAN_ANOMALY":"264.3256","SITE":"AFWTR","COUNTRY_CODE":"US","TIME_SYSTEM":"UTC","MEAN_MOTION_DDOT":"0.0000000000000","PERIOD":"95.919","MEAN_MOTION":"15.01266926","ELEMENT_SET_NO":"999","OBJECT_NAME":"STARLINK-4423","CLASSIFICATION_TYPE":"U","ARG_OF_PERICENTER":"95.8151","MEAN_MOTION_DOT":"0.00003281","ECCENTRICITY":"0.00016020","FILE":"3735435","TLE_LINE2":"2 53209  97.6569  71.2060 0001602  95.8151 264.3256 15.01266926 26135","TLE_LINE1":"1 53209U 22084W   23007.86645070  .00003281  00000-0  25984-3 0  9998","PERIAPSIS":"561.879","APOAPSIS":"564.102","REF_FRAME":"TEME","REV_AT_EPOCH":"2613","EPOCH":"2023-01-07T20:47:41.340480","EPHEMERIS_TYPE":"0","OBJECT_ID":"2022-084W","MEAN_ELEMENT_THEORY":"SGP4","INCLINATION":"97.6569","BSTAR":"0.00025984000000"},{"INCLINATION":"97.6540","BSTAR":"-0.00005016100000","ARG_OF_PERICENTER":"121.3851","CLASSIFICATION_TYPE":"U","TLE_LINE2":"2 53210  97.6540  70.9492 0001110 121.3851 238.7482 15.01267808 26256","FILE":"3735488","ECCENTRICITY":"0.00011100","MEAN_MOTION_DOT":"-0.00000703","EPOCH":"2023-01-07T14:31:24.648096","REV_AT_EPOCH":"2625","APOAPSIS":"563.758","REF_FRAME":"TEME","PERIAPSIS":"562.217","TLE_LINE1":"1 53210U 22084X   23007.60514639 -.00000703  00000-0 -50161-4 0  9992","OBJECT_ID":"2022-084X","MEAN_ELEMENT_THEORY":"SGP4","EPHEMERIS_TYPE":"0","PERIOD":"95.919","TIME_SYSTEM":"UTC","MEAN_MOTION_DDOT":"0.0000000000000","COUNTRY_CODE":"US","ELEMENT_SET_NO":"999","MEAN_MOTION":"15.01267808","OBJECT_NAME":"STARLINK-4427","OBJECT_TYPE":"PAYLOAD","NORAD_CAT_ID":"53210","LAUNCH_DATE":"2022-07-22","DECAY_DATE":null,"CENTER_NAME":"EARTH","GP_ID":"222427482","RA_OF_ASC_NODE":"70.9492","SEMIMAJOR_AXIS":"6941.123","SITE":"AFWTR","MEAN_ANOMALY":"238.7482","RCS_SIZE":"LARGE"},{"OBJECT_NAME":"STARLINK-4419","COUNTRY_CODE":"US","PERIOD":"95.919","MEAN_MOTION_DDOT":"0.0000000000000","TIME_SYSTEM":"UTC","ELEMENT_SET_NO":"999","MEAN_MOTION":"15.01262228","RA_OF_ASC_NODE":"71.1422","SEMIMAJOR_AXIS":"6941.140","GP_ID":"222426340","CENTER_NAME":"EARTH","RCS_SIZE":"LARGE","SITE":"AFWTR","MEAN_ANOMALY":"273.0990","OBJECT_TYPE":"PAYLOAD","LAUNCH_DATE":"2022-07-22","NORAD_CAT_ID":"53211","DECAY_DATE":null,"BSTAR":"-0.00008376200000","INCLINATION":"97.6591","REV_AT_EPOCH":"2626","APOAPSIS":"564.043","REF_FRAME":"TEME","TLE_LINE1":"1 53211U 22084Y   23007.79585538 -.00001135  00000-0 -83762-4 0  9992","PERIAPSIS":"561.967","EPOCH":"2023-01-07T19:06:01.904832","EPHEMERIS_TYPE":"0","MEAN_ELEMENT_THEORY":"SGP4","OBJECT_ID":"2022-084Y","CLASSIFICATION_TYPE":"U","ARG_OF_PERICENTER":"87.0405","MEAN_MOTION_DOT":"-0.00001135","ECCENTRICITY":"0.00014960","TLE_LINE2":"2 53211  97.6591  71.1422 0001496  87.0405 273.0990 15.01262228 26267","FILE":"3735488"},{"RCS_SIZE":"LARGE","MEAN_ANOMALY":"260.0687","SITE":"AFWTR","SEMIMAJOR_AXIS":"6941.077","RA_OF_ASC_NODE":"70.9421","GP_ID":"222426108","CENTER_NAME":"EARTH","DECAY_DATE":null,"LAUNCH_DATE":"2022-07-22","NORAD_CAT_ID":"53212","OBJECT_TYPE":"PAYLOAD","OBJECT_NAME":"STARLINK-4416","MEAN_MOTION":"15.01282665","ELEMENT_SET_NO":"999","COUNTRY_CODE":"US","TIME_SYSTEM":"UTC","MEAN_MOTION_DDOT":"0.0000000000000","PERIOD":"95.918","EPHEMERIS_TYPE":"0","OBJECT_ID":"2022-084Z","MEAN_ELEMENT_THEORY":"SGP4","TLE_LINE1":"1 53212U 22084Z   23007.59958760  .00005753  00000-0  45186-3 0  9997","PERIAPSIS":"561.308","APOAPSIS":"564.576","REF_FRAME":"TEME","REV_AT_EPOCH":"2571","EPOCH":"2023-01-07T14:23:24.368640","MEAN_MOTION_DOT":"0.00005753","ECCENTRICITY":"0.00023540","FILE":"3735488","TLE_LINE2":"2 53212  97.6542  70.9421 0002354 100.0803 260.0687 15.01282665 25717","CLASSIFICATION_TYPE":"U","ARG_OF_PERICENTER":"100.0803","BSTAR":"0.00045186000000","INCLINATION":"97.6542"},{"OBJECT_NAME":"STARLINK-4414","ELEMENT_SET_NO":"999","MEAN_MOTION":"15.01183758","PERIOD":"95.924","MEAN_MOTION_DDOT":"0.0000000000000","TIME_SYSTEM":"UTC","COUNTRY_CODE":"US","MEAN_ANOMALY":"268.3819","SITE":"AFWTR","RCS_SIZE":"LARGE","CENTER_NAME":"EARTH","GP_ID":"222426797","SEMIMAJOR_AXIS":"6941.382","RA_OF_ASC_NODE":"71.1468","LAUNCH_DATE":"2022-07-22","NORAD_CAT_ID":"53213","DECAY_DATE":null,"OBJECT_TYPE":"PAYLOAD","BSTAR":"0.00135860000000","INCLINATION":"97.6620","MEAN_ELEMENT_THEORY":"SGP4","OBJECT_ID":"2022-084AA","EPHEMERIS_TYPE":"0","EPOCH":"2023-01-07T18:58:03.394848","APOAPSIS":"564.380","REF_FRAME":"TEME","REV_AT_EPOCH":"2626","PERIAPSIS":"562.113","TLE_LINE1":"1 53213U 22084AA  23007.79031707  .00017399  00000-0  13586-2 0  9990","TLE_LINE2":"2 53213  97.6620  71.1468 0001633  91.7593 268.3819 15.01183758 26262","FILE":"3735488","MEAN_MOTION_DOT":"0.00017399","ECCENTRICITY":"0.00016330","ARG_OF_PERICENTER":"91.7593","CLASSIFICATION_TYPE":"U"},{"LAUNCH_DATE":"2022-07-22","NORAD_CAT_ID":"53214","DECAY_DATE":null,"OBJECT_TYPE":"PAYLOAD","MEAN_ANOMALY":"277.3710","SITE":"AFWTR","RCS_SIZE":"LARGE","CENTER_NAME":"EARTH","GP_ID":"222392885","SEMIMAJOR_AXIS":"6941.154","RA_OF_ASC_NODE":"70.5498","ELEMENT_SET_NO":"999","MEAN_MOTION":"15.01257529","PERIOD":"95.920","MEAN_MOTION_DDOT":"0.0000000000000","TIME_SYSTEM":"UTC","COUNTRY_CODE":"US","OBJECT_NAME":"STARLINK-4353","TLE_LINE2":"2 53214  97.6576  70.5498 0001543  82.7690 277.3710 15.01257529 25657","FILE":"3735161","MEAN_MOTION_DOT":"-0.00002288","ECCENTRICITY":"0.00015430","ARG_OF_PERICENTER":"82.7690","CLASSIFICATION_TYPE":"U","MEAN_ELEMENT_THEORY":"SGP4","OBJECT_ID":"2022-084AB","EPHEMERIS_TYPE":"0","EPOCH":"2023-01-07T04:44:52.955232","REV_AT_EPOCH":"2565","APOAPSIS":"564.090","REF_FRAME":"TEME","PERIAPSIS":"561.948","TLE_LINE1":"1 53214U 22084AB  23007.19783513 -.00002288  00000-0 -17363-3 0  9995","INCLINATION":"97.6576","BSTAR":"-0.00017363000000"},{"OBJECT_NAME":"STARLINK-4335","ELEMENT_SET_NO":"999","MEAN_MOTION":"15.01256762","PERIOD":"95.920","TIME_SYSTEM":"UTC","MEAN_MOTION_DDOT":"0.0000000000000","COUNTRY_CODE":"US","SITE":"AFWTR","MEAN_ANOMALY":"322.8230","RCS_SIZE":"LARGE","GP_ID":"222393115","CENTER_NAME":"EARTH","RA_OF_ASC_NODE":"70.4882","SEMIMAJOR_AXIS":"6941.157","LAUNCH_DATE":"2022-07-22","NORAD_CAT_ID":"53215","DECAY_DATE":null,"OBJECT_TYPE":"PAYLOAD","BSTAR":"-0.00008968700000","INCLINATION":"97.6609","MEAN_ELEMENT_THEORY":"SGP4","OBJECT_ID":"2022-084AC","EPHEMERIS_TYPE":"0","EPOCH":"2023-01-07T02:55:34.705344","REV_AT_EPOCH":"2616","APOAPSIS":"564.344","REF_FRAME":"TEME","TLE_LINE1":"1 53215U 22084AC  23007.12192946 -.00001211  00000-0 -89687-4 0  9997","PERIAPSIS":"561.700","TLE_LINE2":"2 53215  97.6609  70.4882 0001905  37.3126 322.8230 15.01256762 26161","FILE":"3735161","MEAN_MOTION_DOT":"-0.00001211","ECCENTRICITY":"0.00019050","ARG_OF_PERICENTER":"37.3126","CLASSIFICATION_TYPE":"U"},{"INCLINATION":"97.6603","BSTAR":"0.00026045000000","CLASSIFICATION_TYPE":"U","ARG_OF_PERICENTER":"65.6959","MEAN_MOTION_DOT":"0.00003288","ECCENTRICITY":"0.00017150","TLE_LINE2":"2 53216  97.6603  70.9419 0001715  65.6959 294.4444 15.01259814 25716","FILE":"3735488","APOAPSIS":"564.203","REF_FRAME":"TEME","REV_AT_EPOCH":"2571","TLE_LINE1":"1 53216U 22084AD  23007.59404788  .00003288  00000-0  26045-3 0  9991","PERIAPSIS":"561.822","EPOCH":"2023-01-07T14:15:25.736832","EPHEMERIS_TYPE":"0","MEAN_ELEMENT_THEORY":"SGP4","OBJECT_ID":"2022-084AD","COUNTRY_CODE":"US","PERIOD":"95.919","MEAN_MOTION_DDOT":"0.0000000000000","TIME_SYSTEM":"UTC","ELEMENT_SET_NO":"999","MEAN_MOTION":"15.01259814","OBJECT_NAME":"STARLINK-4376","OBJECT_TYPE":"PAYLOAD","LAUNCH_DATE":"2022-07-22","NORAD_CAT_ID":"53216","DECAY_DATE":null,"RA_OF_ASC_NODE":"70.9419","SEMIMAJOR_AXIS":"6941.147","GP_ID":"222426570","CENTER_NAME":"EARTH","RCS_SIZE":"LARGE","MEAN_ANOMALY":"294.4444","SITE":"AFWTR"}];
